SHIYAN-1 (SY-1)         
1 28220U 04012A   26068.73650539  .00016393  00000+0  54854-3 0  9991
2 28220  97.8764 140.5238 0005873  23.6952 336.4557 15.31043463195862
STARLINK-2166           
1 48558U 21041F   26068.54016696  .00002137  00000+0  84270-4 0  9994
2 48558  53.1605 127.4061 0001309  94.8263 265.2887 15.30192658264390
